[ {"name": "STARLINK-34405", "line1": "1 64704U 25142J   26124.50900948  .00003712  00000+0  31881-3 0  9991", "line2": "2 64704  70.0003 173.6512 0003729 268.3942  91.6790 14.98322539 47855"}, {"name": "STARLINK-34406", "line1": "1 64705U 25142K   26124.53387559  .00002209  00000+0  19288-3 0  9999", "line2": "2 64705  70.0004 173.7366 0003993 269.7851  90.2851 14.98334487 47962"}, {"name": "STARLINK-34559", "line1": "1 64706U 25142L   26124.50883033  .00004306  00000+0  36835-3 0  9992", "line2": "2 64706  70.0006 173.6455 0004009 278.5701  81.5004 14.98337849 47850"}, {"name": "STARLINK-34316", "line1": "1 64707U 25142M   26124.51300205  .00002183  00000+0  19069-3 0  9990", "line2": "2 64707  70.0002 173.6617 0004459 266.5438  93.5211 14.98335408 48011"}, {"name": "STARLINK-34563", "line1": "1 64708U 25142N   26124.55473760 -.00003100  00000+0 -25217-3 0  9996", "line2": "2 64708  70.0005 173.8054 0003330 268.4066  91.6712 14.98325325 47827"}, {"name": "STARLINK-34499", "line1": "1 64709U 25142P   26124.50467351  .00008102  00000+0  68589-3 0  9995", "line2": "2 64709  70.0003 173.6099 0004232 270.0172  90.0502 14.98334482 47826"}, {"name": "STARLINK-34447", "line1": "1 64710U 25142Q   26124.52568933  .00002015  00000+0  17658-3 0  9995", "line2": "2 64710  70.0003 173.6696 0004096 268.0090  92.0600 14.98334474 48019"}, {"name": "STARLINK-34312", "line1": "1 64711U 25142R   26124.51734203  .00001761  00000+0  15533-3 0  9997", "line2": "2 64711  70.0003 173.6715 0003977 268.8200  91.2503 14.98334072 48017"}, {"name": "STARLINK-34515", "line1": "1 64712U 25142S   26124.56323003  .00003599  00000+0  30916-3 0  9998", "line2": "2 64712  70.0004 173.4103 0004023 269.1537  90.9161 14.98339153 47838"}, {"name": "STARLINK-34583", "line1": "1 64713U 25142T   26124.54639502  .00003088  00000+0  26644-3 0  9997", "line2": "2 64713  70.0004 173.7462 0004094 267.7601  92.3089 14.98336367 47822"}, {"name": "STARLINK-34574", "line1": "1 64714U 25142U   26124.52986618  .00001881  00000+0  16535-3 0  9996", "line2": "2 64714  70.0003 173.7166 0003848 269.8570  90.2148 14.98333267 47859"}, {"name": "STARLINK-34533", "line1": "1 64715U 25142V   26124.58393742  .00001311  00000+0  11763-3 0  9999", "line2": "2 64715  70.0005 173.5093 0003840 267.3526  92.7193 14.98332338 47838"}, {"name": "STARLINK-34548", "line1": "1 64716U 25142W   26124.50047107  .00018669  00000+0  15665-2 0  9991", "line2": "2 64716  69.9999 173.6169 0004094 259.5912 100.4786 14.98370732 47821"}, {"name": "STARLINK-34568", "line1": "1 64717U 25142X   26124.52553990  .00003760  00000+0  32278-3 0  9992", "line2": "2 64717  70.0002 173.7060 0003650 269.2729  90.8012 14.98326885 47859"}, {"name": "STARLINK-34546", "line1": "1 64718U 25142Y   26124.55889171  .00003247  00000+0  27971-3 0  9993", "line2": "2 64718  70.0003 173.4189 0003937 276.3620  83.7091 14.98341297 48029"}, {"name": "STARLINK-34577", "line1": "1 64719U 25142Z   26124.52969864  .00001695  00000+0  14980-3 0  9990", "line2": "2 64719  70.0002 173.6856 0003978 270.1205  89.9498 14.98333081 47859"}, {"name": "STARLINK-34572", "line1": "1 64720U 25142AA  26124.45458287 -.00005674  00000+0 -46803-3 0  9998", "line2": "2 64720  70.0025 173.8576 0003792 280.3394  79.7338 14.98333327 48004"}, {"name": "STARLINK-34558", "line1": "1 64721U 25142AB  26124.52150779 -.00001657  00000+0 -13109-3 0  9992", "line2": "2 64721  70.0009 173.6870 0003314 273.0357  87.0423 14.98330851 47825"}, {"name": "STARLINK-34393", "line1": "1 64724U 25144A   26124.45563902  .00019823  00000+0  67944-3 0  9993", "line2": "2 64724  53.1593 281.7477 0001282  84.9301 275.1846 15.30208832 48260"}, {"name": "STARLINK-34562", "line1": "1 64725U 25144B   26124.43148301  .00018800  00000+0  64520-3 0  9995", "line2": "2 64725  53.1613 282.3097 0001533  93.2370 266.8807 15.30202898 48223"}, {"name": "STARLINK-34557", "line1": "1 64726U 25144C   26124.14912755  .00018676  00000+0  64057-3 0  9992", "line2": "2 64726  53.1585 283.3917 0001183  94.5176 265.5960 15.30226662 48202"}, {"name": "STARLINK-34242", "line1": "1 64727U 25144D   26124.17760966  .00019594  00000+0  67186-3 0  9997", "line2": "2 64727  53.1617 283.5658 0001330  85.7227 274.3925 15.30203379 48205"}, {"name": "STARLINK-34239", "line1": "1 64728U 25144E   26124.40298892  .00016255  00000+0  55971-3 0  9998", "line2": "2 64728  53.1587 282.1291 0001145  91.1555 268.9577 15.30202055 48245"}, {"name": "STARLINK-34588", "line1": "1 64729U 25144F   26124.16389125  .00018562  00000+0  63711-3 0  9996", "line2": "2 64729  53.1606 283.4810 0001216  88.6349 271.4791 15.30207544 48201"}, {"name": "STARLINK-34606", "line1": "1 64730U 25144G   26124.14278385  .00023625  00000+0  80709-3 0  9993", "line2": "2 64730  53.1580 283.3492 0001127  70.3170 289.7952 15.30205572 48200"}, {"name": "STARLINK-34552", "line1": "1 64731U 25144H   26124.46091576  .00024390  00000+0  83271-3 0  9991", "line2": "2 64731  53.1584 281.7755 0001498  86.4868 273.6304 15.30207464 48252"}, {"name": "STARLINK-34596", "line1": "1 64732U 25144J   26124.41986987  .00019469  00000+0  66737-3 0  9995", "line2": "2 64732  53.1594 282.2329 0001321  71.0214 289.0930 15.30218087 48245"}, {"name": "STARLINK-34556", "line1": "1 64733U 25144K   26124.62973178  .00027833  00000+0  83076-3 0  9996", "line2": "2 64733  53.1625 278.5707 0001397  60.7637 299.3505 15.34440566 48319"}, {"name": "STARLINK-34591", "line1": "1 64734U 25144L   26124.46513856  .00030304  00000+0  10305-2 0  9993", "line2": "2 64734  53.1591 281.8076 0002330  86.4698 273.6570 15.30217420 48233"}, {"name": "STARLINK-34587", "line1": "1 64735U 25144M   26124.42937465  .00009009  00000+0  31599-3 0  9993", "line2": "2 64735  53.1625 282.2977 0001328  82.3254 277.7898 15.30193652 48199"}, {"name": "STARLINK-34130", "line1": "1 64736U 25144N   26124.15122851  .00015280  00000+0  52691-3 0  9993", "line2": "2 64736  53.1587 283.3975 0001495  84.2778 275.8394 15.30203445 48208"}, {"name": "STARLINK-34619", "line1": "1 64737U 25144P   26123.72462445  .00010459  00000+0  36470-3 0  9992", "line2": "2 64737  53.1600 285.7118 0001115  94.2749 265.8379 15.30203964 48138"}, {"name": "STARLINK-34597", "line1": "1 64738U 25144Q   26124.64841809  .00023100  00000+0  78925-3 0  9998", "line2": "2 64738  53.1589 280.8168 0000842  77.2991 282.8104 15.30215866 48265"}, {"name": "STARLINK-34471", "line1": "1 64739U 25144R   26124.42620817  .00020140  00000+0  69020-3 0  9996", "line2": "2 64739  53.1615 282.2705 0001380  83.0771 277.0386 15.30203282 48186"}, {"name": "STARLINK-34208", "line1": "1 64740U 25144S   26124.58335648 -.00016008  00000+0 -47625-3 0  9997", "line2": "2 64740  53.1604 278.8452 0001214  93.3861 340.3025 15.33560933  5871"}, {"name": "STARLINK-34205", "line1": "1 64741U 25144T   26124.15545340  .00026205  00000+0  89361-3 0  9994", "line2": "2 64741  53.1582 283.4237 0001545  85.3398 274.7780 15.30205388 48202"}, {"name": "STARLINK-34607", "line1": "1 64742U 25144U   26124.17127735  .00020764  00000+0  71106-3 0  9993", "line2": "2 64742  53.1617 283.5217 0001336  95.2133 264.9020 15.30207001 48185"}, {"name": "STARLINK-34236", "line1": "1 64743U 25144V   26124.41565138  .00016917  00000+0  58184-3 0  9990", "line2": "2 64743  53.1596 282.2038 0001236  90.2217 269.8926 15.30208416 48243"}, {"name": "STARLINK-34185", "line1": "1 64744U 25144W   26124.45774885  .00020445  00000+0  70031-3 0  9992", "line2": "2 64744  53.1584 281.7539 0001247  86.6170 273.4973 15.30208488 48253"}, {"name": "STARLINK-34581", "line1": "1 64745U 25144X   26124.44097920  .00020105  00000+0  68892-3 0  9995", "line2": "2 64745  53.1612 282.3603 0001609  85.3178 274.8007 15.30207500 48247"}, {"name": "STARLINK-34592", "line1": "1 64746U 25144Y   26124.56577705  .00021624  00000+0  73999-3 0  9994", "line2": "2 64746  53.1589 268.9396 0001003  80.8265 279.2849 15.30204231 48448"}, {"name": "STARLINK-34589", "line1": "1 64747U 25144Z   26124.11595281  .00017162  00000+0  59018-3 0  9993", "line2": "2 64747  53.1611 271.0427 0001307  87.4785 272.6365 15.30201925 48371"}, {"name": "STARLINK-34536", "line1": "1 64748U 25144AA  26124.42198288  .00024706  00000+0  84324-3 0  9994", "line2": "2 64748  53.1608 282.2382 0001427  89.9827 270.1338 15.30210503 48240"}, {"name": "STARLINK-34595", "line1": "1 64749U 25144AB  26124.42303868  .00017801  00000+0  61146-3 0  9992", "line2": "2 64749  53.1609 282.2456 0001760  80.9695 279.1505 15.30212047 48248"}, {"name": "STARLINK-34531", "line1": "1 64750U 25144AC  26124.47147138  .00022189  00000+0  75919-3 0  9993", "line2": "2 64750  53.1585 281.8433 0001274  96.6814 263.4332 15.30194021 48256"}, {"name": "STARLINK-33965", "line1": "1 64755U 25147A   26124.58335648  .00045116  00000+0  13395-2 0  9992", "line2": "2 64755  53.1607 342.9267 0001793  86.1448 223.9586 15.34373342  5819"}, {"name": "STARLINK-34371", "line1": "1 64756U 25147B   26124.09944920  .00025065  00000+0  81656-3 0  9995", "line2": "2 64756  53.1596 345.4922 0001037  84.9652 275.1468 15.31708216 47180"}, {"name": "STARLINK-34401", "line1": "1 64757U 25147C   26124.02930890  .00025993  00000+0  77857-3 0  9998", "line2": "2 64757  53.1592 345.7676 0001661  72.8267 287.2917 15.34367301 47156"}, {"name": "STARLINK-34593", "line1": "1 64758U 25147D   26124.58188250  .00029759  00000+0  88825-3 0  9996", "line2": "2 64758  53.1619 342.8148 0001351  97.0454 263.0702 15.34404926 47319"}, {"name": "STARLINK-34598", "line1": "1 64759U 25147E   26123.87636518  .00021519  00000+0  73623-3 0  9999", "line2": "2 64759  53.1617 346.2320 0001379  77.0715 283.0440 15.30215430 47155"}, {"name": "STARLINK-34235", "line1": "1 64760U 25147F   26124.02387688  .00020296  00000+0  69512-3 0  9993", "line2": "2 64760  53.1611 345.7361 0001024  91.4025 268.7093 15.30217476 47269"}, {"name": "STARLINK-34635", "line1": "1 64761U 25147G   26124.33462437  .00033292  00000+0  11309-2 0  9994", "line2": "2 64761  53.1614 344.1137 0001283  93.3030 266.8118 15.30206913 47273"}]